HYPERFIELD-1A           
1 60562U 24149CY  26068.76488211  .00008569  00000+0  30052-3 0  9998
2 60562  97.3842 149.5066 0003865 313.7844  46.3076 15.29681349 86836
STARLINK-32638          
1 62424U 24249R   26068.12936063  .00033550  00000+0  12227-2 0  9992
2 62424  43.0007 328.8669 0001733 264.6868  95.3785 15.27592589 67597
